OBJECT_NAME,OBJECT_ID,EPOCH,MEAN_MOTION,ECCENTRICITY,INCLINATION,RA_OF_ASC_NODE,ARG_OF_PERICENTER,MEAN_ANOMALY,EPHEMERIS_TYPE,CLASSIFICATION_TYPE,NORAD_CAT_ID,ELEMENT_SET_NO,REV_AT_EPOCH,BSTAR,MEAN_MOTION_DOT,MEAN_MOTION_DDOT
ONEWEB-0198,2021-031G,2026-06-17T09:05:40.529184,13.14502703,.00020851,87.8956,289.6734,112.8752,247.2598,0,U,48216,999,24851,-.12115651E-3,-.32E-6,0
ONEWEB-0189,2021-031H,2026-06-17T07:34:08.050944,13.14503508,.00020234,87.8968,289.6721,110.9079,249.2267,0,U,48217,999,24824,.71106787E-3,.276E-5,0
ONEWEB-0196,2021-031J,2026-06-17T08:51:46.280160,13.14503295,.00020257,87.8964,289.6703,104.7337,255.4017,0,U,48218,999,24825,-.38584855E-3,-.13E-5,0
ONEWEB-0183,2021-031K,2026-06-17T08:15:14.133312,13.14503463,.0002075,87.8964,289.6735,96.5156,263.6210,0,U,48219,999,24834,.21095178E-3,.91E-6,0
ONEWEB-0185,2021-031L,2026-06-17T08:52:54.125760,13.14502754,.00023505,87.8971,289.6618,101.0593,259.0801,0,U,48220,999,24827,-.32586111E-3,-.108E-5,0
ONEWEB-0187,2021-031M,2026-06-17T08:24:09.097056,13.14506795,.00023878,87.8957,289.6803,100.7757,259.3641,0,U,48221,999,24828,-.60310987E-3,-.211E-5,0
ONEWEB-0192,2021-031N,2026-06-17T09:30:35.000352,13.14501139,.00019008,87.8963,289.6625,104.1726,255.9615,0,U,48222,999,24820,.60070232E-3,.235E-5,0
ONEWEB-0219,2021-031P,2026-06-17T09:00:52.614144,13.14502427,.00021648,87.8964,289.6587,103.6033,256.5338,0,U,48223,999,24840,-.64916082E-3,-.228E-5,0
ONEWEB-0202,2021-031Q,2026-06-17T08:33:30.476736,13.14502843,.00018768,87.8967,289.6746,121.5770,238.5543,0,U,48224,999,24838,-.34448139E-3,-.115E-5,0
ONEWEB-0204,2021-031R,2026-06-17T07:32:59.812224,13.14503152,.00021595,87.8966,289.6777,94.6745,265.4631,0,U,48225,999,24827,.46678913E-3,.186E-5,0
ONEWEB-0205,2021-031S,2026-06-17T08:47:10.652064,13.14501650,.00021806,87.8975,289.6610,106.1419,253.9951,0,U,48226,999,24829,-.52077018E-3,-.18E-5,0
ONEWEB-0206,2021-031T,2026-06-17T08:08:22.773408,13.14504001,.00017984,87.8970,289.6677,96.7464,263.3870,0,U,48227,999,24824,.45726821E-3,.182E-5,0
ONEWEB-0182,2021-031U,2026-06-17T08:01:32.208384,13.14502558,.00020466,87.8965,289.6763,95.2312,264.9051,0,U,48228,999,24845,.69244619E-3,.27E-5,0
ONEWEB-0186,2021-031V,2026-06-17T08:17:30.982272,13.14502552,.00020112,87.8976,289.6646,102.5204,257.6151,0,U,48229,999,24840,.17602026E-3,.78E-6,0
ONEWEB-0181,2021-031W,2026-06-17T07:45:33.180480,13.14503361,.00019994,87.8953,289.6985,106.3381,253.7968,0,U,48230,999,24825,.79026106E-3,.306E-5,0
ONEWEB-0188,2021-031X,2026-06-17T08:40:20.555328,13.14504285,.00019894,87.8957,289.6899,101.1398,258.9955,0,U,48231,999,24816,-.32904423E-3,-.109E-5,0
ONEWEB-0220,2021-031Y,2026-06-17T07:47:49.184448,13.14502563,.00022444,87.8973,289.6704,104.0293,256.1086,0,U,48232,999,24842,.68823402E-3,.268E-5,0
ONEWEB-0165,2021-031Z,2026-06-17T08:28:55.900992,13.14501053,.00019763,87.8966,289.6774,112.3614,247.7725,0,U,48233,999,24838,-.2815469E-3,-.92E-6,0
ONEWEB-0199,2021-031AA,2026-06-17T08:06:06.000480,13.14503279,.00018208,87.8973,289.6667,95.6862,264.4475,0,U,48234,999,24828,.50100615E-3,.199E-5,0
ONEWEB-0203,2021-031AB,2026-06-17T09:42:01.050048,13.14502152,.00017786,87.8971,289.6567,102.9495,257.1833,0,U,48235,999,24830,.45962678E-3,.183E-5,0
ONEWEB-0197,2021-031AC,2026-06-17T09:05:15.938880,13.14504641,.00022073,87.8961,289.6480,97.1482,262.9898,0,U,48236,999,24821,-.48099792E-4,-.5E-7,0
ONEWEB-0194,2021-031AD,2026-06-17T08:35:47.176224,13.14502880,.00017084,87.8967,289.6741,98.4512,261.6811,0,U,48237,999,24838,-.33496499E-3,-.111E-5,0
ONEWEB-0193,2021-031AE,2026-06-17T08:58:36.985152,13.14503067,.00015375,87.8965,289.6614,94.7979,265.3327,0,U,48238,999,24833,-.29797394E-3,-.98E-6,0
ONEWEB-0191,2021-031AF,2026-06-17T09:14:36.669696,13.14503214,.00020625,87.8972,289.6578,96.0940,264.0424,0,U,48239,999,24819,.24164147E-3,.102E-5,0
ONEWEB-0195,2021-031AG,2026-06-17T08:41:29.081760,13.14501803,.00020636,87.8970,289.6628,111.4983,248.6367,0,U,48240,999,24817,-.45337878E-3,-.155E-5,0
ONEWEB-0201,2021-031AH,2026-06-17T08:24:32.641056,13.14504948,.00022526,87.8964,289.6814,97.9552,262.1833,0,U,48241,999,24840,-.87466652E-4,-.2E-6,0
ONEWEB-0207,2021-031AJ,2026-06-17T07:55:49.570176,13.14502832,.00022001,87.8972,289.6703,98.6217,261.5162,0,U,48242,999,24831,.65935111E-3,.257E-5,0
ONEWEB-0208,2021-031AK,2026-06-17T09:19:10.464384,13.14503878,.00019582,87.8967,289.6651,111.1639,248.9700,0,U,48243,999,24833,.25112532E-3,.106E-5,0
ONEWEB-0200,2021-031AL,2026-06-17T08:26:38.757408,13.14502524,.00020023,87.8976,289.6591,103.1677,256.9676,0,U,48244,999,24825,-.2177363E-3,-.68E-6,0
ONEWEB-0217,2021-031AM,2026-06-17T08:49:27.905376,13.14511248,.0001995,87.8972,289.6602,112.3656,247.7685,0,U,48245,999,24820,-.57210404E-2,-.2108E-4,0
