ONEWEB-0198             
1 48216U 21031G   26168.37894131 -.00000032  00000+0 -12116-3 0  9997
2 48216  87.8956 289.6734 0002085 112.8752 247.2598 13.14502703248519
ONEWEB-0189             
1 48217U 21031H   26168.31537096  .00000276  00000+0  71107-3 0  9999
2 48217  87.8968 289.6721 0002023 110.9079 249.2267 13.14503508248241
ONEWEB-0196             
1 48218U 21031J   26168.36928565 -.00000130  00000+0 -38585-3 0  9994
2 48218  87.8964 289.6703 0002025 104.7337 255.4017 13.14503295248254
ONEWEB-0183             
1 48219U 21031K   26168.34391358  .00000091  00000+0  21095-3 0  9999
2 48219  87.8964 289.6735 0002075  96.5156 263.6210 13.14503463248345
ONEWEB-0185             
1 48220U 21031L   26168.37007090 -.00000108  00000+0 -32586-3 0  9999
2 48220  87.8971 289.6618 0002350 101.0593 259.0801 13.14502754248277
ONEWEB-0187             
1 48221U 21031M   26168.35010529 -.00000211  00000+0 -60311-3 0  9991
2 48221  87.8957 289.6803 0002387 100.7757 259.3641 13.14506795248281
ONEWEB-0192             
1 48222U 21031N   26168.39623843  .00000235  00000+0  60070-3 0  9991
2 48222  87.8963 289.6625 0001900 104.1726 255.9615 13.14501139248207
ONEWEB-0219             
1 48223U 21031P   26168.37560896 -.00000228  00000+0 -64916-3 0  9995
2 48223  87.8964 289.6587 0002164 103.6033 256.5338 13.14502427248406
ONEWEB-0202             
1 48224U 21031Q   26168.35660274 -.00000115  00000+0 -34448-3 0  9997
2 48224  87.8967 289.6746 0001876 121.5770 238.5543 13.14502843248380
ONEWEB-0204             
1 48225U 21031R   26168.31458116  .00000186  00000+0  46679-3 0  9999
2 48225  87.8966 289.6777 0002159  94.6745 265.4631 13.14503152248270
ONEWEB-0205             
1 48226U 21031S   26168.36609551 -.00000180  00000+0 -52077-3 0  9991
2 48226  87.8975 289.6610 0002180 106.1419 253.9951 13.14501650248298
ONEWEB-0206             
1 48227U 21031T   26168.33915247  .00000182  00000+0  45727-3 0  9995
2 48227  87.8970 289.6677 0001798  96.7464 263.3870 13.14504001248248
ONEWEB-0182             
1 48228U 21031U   26168.33440056  .00000270  00000+0  69245-3 0  9996
2 48228  87.8965 289.6763 0002046  95.2312 264.9051 13.14502558248458
ONEWEB-0186             
1 48229U 21031V   26168.34549748  .00000078  00000+0  17602-3 0  9992
2 48229  87.8976 289.6646 0002011 102.5204 257.6151 13.14502552248404
ONEWEB-0181             
1 48230U 21031W   26168.32330070  .00000306  00000+0  79026-3 0  9990
2 48230  87.8953 289.6985 0001999 106.3381 253.7968 13.14503361248254
ONEWEB-0188             
1 48231U 21031X   26168.36134902 -.00000109  00000+0 -32904-3 0  9998
2 48231  87.8957 289.6899 0001989 101.1398 258.9955 13.14504285248162
ONEWEB-0220             
1 48232U 21031Y   26168.32487482  .00000268  00000+0  68823-3 0  9992
2 48232  87.8973 289.6704 0002244 104.0293 256.1086 13.14502563248428
ONEWEB-0165             
1 48233U 21031Z   26168.35342478 -.00000092  00000+0 -28155-3 0  9992
2 48233  87.8966 289.6774 0001976 112.3614 247.7725 13.14501053248382
ONEWEB-0199             
1 48234U 21031AA  26168.33756945  .00000199  00000+0  50101-3 0  9991
2 48234  87.8973 289.6667 0001820  95.6862 264.4475 13.14503279248287
ONEWEB-0203             
1 48235U 21031AB  26168.40417882  .00000183  00000+0  45963-3 0  9997
2 48235  87.8971 289.6567 0001778 102.9495 257.1833 13.14502152248300
ONEWEB-0197             
1 48236U 21031AC  26168.37865670 -.00000005  00000+0 -48100-4 0  9998
2 48236  87.8961 289.6480 0002207  97.1482 262.9898 13.14504641248213
ONEWEB-0194             
1 48237U 21031AD  26168.35818491 -.00000111  00000+0 -33496-3 0  9995
2 48237  87.8967 289.6741 0001708  98.4512 261.6811 13.14502880248385
ONEWEB-0193             
1 48238U 21031AE  26168.37403918 -.00000098  00000+0 -29797-3 0  9995
2 48238  87.8965 289.6614 0001537  94.7979 265.3327 13.14503067248335
ONEWEB-0191             
1 48239U 21031AF  26168.38514664  .00000102  00000+0  24164-3 0  9995
2 48239  87.8972 289.6578 0002062  96.0940 264.0424 13.14503214248192
ONEWEB-0195             
1 48240U 21031AG  26168.36214215 -.00000155  00000+0 -45338-3 0  9990
2 48240  87.8970 289.6628 0002063 111.4983 248.6367 13.14501803248172
ONEWEB-0201             
1 48241U 21031AH  26168.35037779 -.00000020  00000+0 -87467-4 0  9999
2 48241  87.8964 289.6814 0002252  97.9552 262.1833 13.14504948248401
ONEWEB-0207             
1 48242U 21031AJ  26168.33043484  .00000257  00000+0  65935-3 0  9993
2 48242  87.8972 289.6703 0002200  98.6217 261.5162 13.14502832248315
ONEWEB-0208             
1 48243U 21031AK  26168.38831556  .00000106  00000+0  25113-3 0  9991
2 48243  87.8967 289.6651 0001958 111.1639 248.9700 13.14503878248330
ONEWEB-0200             
1 48244U 21031AL  26168.35183747 -.00000068  00000+0 -21774-3 0  9999
2 48244  87.8976 289.6591 0002002 103.1677 256.9676 13.14502524248257
ONEWEB-0217             
1 48245U 21031AM  26168.36768409 -.00002108  00000+0 -57210-2 0  9995
2 48245  87.8972 289.6602 0001995 112.3656 247.7685 13.14511248248202
